<?xml version="1.0"?>
<gpx version="1.1" creator="gpxgenerator.com">
<wpt lat="17.438849275812856" lon="78.36330585447952">
    <ele>605.24</ele>
    <time>2025-11-26T17:39:29Z</time>
</wpt>
<wpt lat="17.439289410823505" lon="78.36269967524215">
    <ele>607.33</ele>
    <time>2025-11-26T17:40:27Z</time>
</wpt>
<wpt lat="17.439668130796477" lon="78.36208605972084">
    <ele>607.48</ele>
    <time>2025-11-26T17:41:22Z</time>
</wpt>
<wpt lat="17.440000789583458" lon="78.36158716884407">
    <ele>608.26</ele>
    <time>2025-11-26T17:42:08Z</time>
</wpt>
<wpt lat="17.44032321213642" lon="78.36111510005745">
    <ele>610.57</ele>
    <time>2025-11-26T17:42:52Z</time>
</wpt>
<wpt lat="17.440309127147593" lon="78.36191654205322">
    <ele>610.73</ele>
    <time>2025-11-26T17:43:53Z</time>
</wpt>
<wpt lat="17.440309127147593" lon="78.36191654205322">
    <ele>610.73</ele>
    <time>2025-11-26T17:43:53Z</time>
</wpt>
<wpt lat="17.440138479951447" lon="78.36193531751633">
    <ele>610.05</ele>
    <time>2025-11-26T17:44:06Z</time>
</wpt>
<wpt lat="17.439908177952788" lon="78.36225181818008">
    <ele>610.18</ele>
    <time>2025-11-26T17:44:36Z</time>
</wpt>
<wpt lat="17.439631815170554" lon="78.36261123418808">
    <ele>609.36</ele>
    <time>2025-11-26T17:45:11Z</time>
</wpt>
<wpt lat="17.439350334128537" lon="78.36312621831894">
    <ele>609.19</ele>
    <time>2025-11-26T17:45:56Z</time>
</wpt>
<wpt lat="17.439104677591427" lon="78.36349099874496">
    <ele>605.71</ele>
    <time>2025-11-26T17:46:30Z</time>
</wpt>
<wpt lat="17.438956259939932" lon="78.36366802453995">
    <ele>605.91</ele>
    <time>2025-11-26T17:46:47Z</time>
</wpt>
<wpt lat="17.438873348785968" lon="78.36376299903041">
    <ele>606.39</ele>
    <time>2025-11-26T17:46:56Z</time>
</wpt>
<wpt lat="17.43870957736971" lon="78.36403658434993">
    <ele>607.49</ele>
    <time>2025-11-26T17:47:20Z</time>
</wpt>
<wpt lat="17.438509980757335" lon="78.36422433898097">
    <ele>607.43</ele>
    <time>2025-11-26T17:47:41Z</time>
</wpt>
<wpt lat="17.438221047012565" lon="78.36479723453522">
    <ele>602.89</ele>
    <time>2025-11-26T17:48:30Z</time>
</wpt>
<wpt lat="17.437941896895897" lon="78.36495389983303">
    <ele>601.68</ele>
    <time>2025-11-26T17:48:55Z</time>
</wpt>
<wpt lat="17.437675766910804" lon="78.36535623118526">
    <ele>598.13</ele>
    <time>2025-11-26T17:49:32Z</time>
</wpt>
<wpt lat="17.437455697591385" lon="78.36558153674251">
    <ele>597.52</ele>
    <time>2025-11-26T17:49:56Z</time>
</wpt>
<wpt lat="17.437271453305826" lon="78.36584439322597">
    <ele>598.53</ele>
    <time>2025-11-26T17:50:20Z</time>
</wpt>
<wpt lat="17.437133269969536" lon="78.36597313925868">
    <ele>599.38</ele>
    <time>2025-11-26T17:50:34Z</time>
</wpt>
<wpt lat="17.437000204435652" lon="78.36613943621761">
    <ele>599.57</ele>
    <time>2025-11-26T17:50:50Z</time>
</wpt>
</gpx>